[{"OBJECT_NAME":"OTB","OBJECT_ID":"2019-036C","EPOCH":"2026-03-09T21:12:23.351040","MEAN_MOTION":14.5700145,"ECCENTRICITY":0.00109838,"INCLINATION":23.9955,"RA_OF_ASC_NODE":249.3204,"ARG_OF_PERICENTER":354.045,"MEAN_ANOMALY":5.991,"EPHEMERIS_TYPE":0,"CLASSIFICATION_TYPE":"U","NORAD_CAT_ID":44341,"ELEMENT_SET_NO":999,"REV_AT_EPOCH":35687,"BSTAR":0.00031296152,"MEAN_MOTION_DOT":1.652e-5,"MEAN_MOTION_DDOT":0},{"OBJECT_NAME":"DMSP 5D-2 F11 DEB","OBJECT_ID":"1991-082BV","EPOCH":"2026-03-08T11:55:18.761952","MEAN_MOTION":14.5746329,"ECCENTRICITY":0.00084512,"INCLINATION":98.5717,"RA_OF_ASC_NODE":156.2469,"ARG_OF_PERICENTER":121.589,"MEAN_ANOMALY":238.6133,"EPHEMERIS_TYPE":0,"CLASSIFICATION_TYPE":"U","NORAD_CAT_ID":29074,"ELEMENT_SET_NO":999,"REV_AT_EPOCH":11592,"BSTAR":0.0029844037,"MEAN_MOTION_DOT":0.00013535,"MEAN_MOTION_DDOT":0}]
